GPS BIIR-5  (PRN 22)    
1 26407U 00040A   26134.33397747  .00000034  00000+0  00000+0 0  9997
2 26407  54.8571 216.5069 0121418 302.3490  18.3748  2.00557366189269
GPS BIIR-8  (PRN 16)    
1 27663U 03005A   26134.25339102  .00000033  00000+0  00000+0 0  9997
2 27663  54.8882 216.3171 0148019  53.0100 345.0409  2.00562334170631
GPS BIIR-11 (PRN 19)    
1 28190U 04009A   26133.74174988 -.00000036  00000+0  00000+0 0  9994
2 28190  54.8595 277.0782 0114536 171.5512  11.0195  2.00555769162255
GPS BIIR-13 (PRN 02)    
1 28474U 04045A   26134.14979289 -.00000051  00000+0  00000+0 0  9998
2 28474  55.1560 326.2669 0169904 315.5113 226.7446  2.00554278157749
GPS BIIRM-1 (PRN 17)    
1 28874U 05038A   26133.41951223 -.00000034  00000+0  00000+0 0  9993
2 28874  54.9077 274.5799 0127710 295.9425  41.1639  2.00568027151135
GPS BIIRM-2 (PRN 31)    
1 29486U 06042A   26134.08308573  .00000115  00000+0  00000+0 0  9996
2 29486  54.7055 152.6929 0106155  53.7210 300.4614  2.00571763143701
GPS BIIRM-3 (PRN 12)    
1 29601U 06052A   26133.01820149  .00000023  00000+0  00000+0 0  9994
2 29601  54.9399 215.4003 0085928  90.4979 270.5379  2.00556196142705
GPS BIIRM-4 (PRN 15)    
1 32260U 07047A   26133.32302001  .00000005  00000+0  00000+0 0  9990
2 32260  54.0705  81.5020 0165272  86.7428 275.1201  2.00556966136119
GPS BIIRM-5 (PRN 29)    
1 32384U 07062A   26133.64089253 -.00000035  00000+0  00000+0 0  9994
2 32384  55.0606 275.5408 0035032 163.3905 193.1402  2.00557902134812
GPS BIIRM-6 (PRN 07)    
1 32711U 08012A   26134.23441700  .00000114  00000+0  00000+0 0  9996
2 32711  54.4916 151.2812 0210383 247.3818 110.4365  2.00571490133077
GPS BIIRM-8 (PRN 05)    
1 35752U 09043A   26133.37603104 -.00000072  00000+0  00000+0 0  9995
2 35752  56.1893  28.8193 0053296  81.8694  30.5658  2.00556103122664
GPS BIIF-1  (PRN 25)    
1 36585U 10022A   26133.56303456  .00000038  00000+0  00000+0 0  9998
2 36585  54.2740 209.9570 0126465  66.1117 298.9101  2.00560678116900
GPS BIIF-3  (PRN 24)    
1 38833U 12053A   26133.41661257  .00000113  00000+0  00000+0 0  9996
2 38833  53.5788 145.0238 0178583  65.3053 296.5958  2.00566885 98742
GPS BIIF-4  (PRN 27)    
1 39166U 13023A   26133.28260935 -.00000033  00000+0  00000+0 0  9999
2 39166  54.5327 270.3950 0141822  50.8306 310.3961  2.00563631 95181
GPS BIIF-5  (PRN 30)    
1 39533U 14008A   26133.78236160  .00000113  00000+0  00000+0 0  9997
2 39533  53.6482 150.7230 0084073 230.5998 128.7111  2.00557581 88997
GPS BIIF-6  (PRN 06)    
1 39741U 14026A   26134.05786260 -.00000051  00000+0  00000+0 0  9992
2 39741  56.5142 332.8462 0038618 326.8645  32.9252  2.00563452 87855
GPS BIIF-7  (PRN 09)    
1 40105U 14045A   26134.14895784  .00000019  00000+0  00000+0 0  9994
2 40105  55.3318  89.8204 0032082 118.7363 241.5584  2.00556087 85399
GPS BIIF-8  (PRN 03)    
1 40294U 14068A   26134.02160300 -.00000070  00000+0  00000+0 0  9992
2 40294  56.9651  32.2713 0066015  69.3905 291.3455  2.00573953 84523
GPS BIIF-9  (PRN 26)    
1 40534U 15013A   26134.15747021  .00000050  00000+0  00000+0 0  9992
2 40534  53.1712 205.5852 0108988  40.0243 320.8464  2.00553381 81149
GPS BIIF-10 (PRN 08)    
1 40730U 15033A   26133.81802306 -.00000033  00000+0  00000+0 0  9994
2 40730  54.0105 268.5030 0115000  30.0544 330.5749  2.00557945 79305
GPS BIIF-11 (PRN 10)    
1 41019U 15062A   26133.37680864 -.00000070  00000+0  00000+0 0  9992
2 41019  56.9370  32.1525 0111292 231.3730 127.6556  2.00566928 77138
GPS BIIF-12 (PRN 32)    
1 41328U 16007A   26132.96693977  .00000032  00000+0  00000+0 0  9995
2 41328  55.5031  90.8552 0096124 247.2479 111.7128  2.00553357 75132
GPS BIII-1  (PRN 04)    
1 43873U 18109A   26133.27601630  .00000036  00000+0  00000+0 0  9991
2 43873  55.6614  93.5638 0038033 198.7177 277.7554  2.00560030 54377
GPS BIII-2  (PRN 18)    
1 44506U 19056A   26134.25098181 -.00000053  00000+0  00000+0 0  9997
2 44506  55.6530 332.4919 0060363 197.4131 165.7347  2.00569226 49390
GPS BIII-3  (PRN 23)    
1 45854U 20041A   26132.65692499 -.00000071  00000+0  00000+0 0  9994
2 45854  56.6475  30.3230 0062604 204.7790  27.1781  2.00559403 43325
GPS BIII-4  (PRN 14)    
1 46826U 20078A   26134.30789351  .00000040  00000+0  00000+0 0  9997
2 46826  53.9846 212.1531 0072044 206.2235 113.0392  2.00564762 40820
GPS BIII-5  (PRN 11)    
1 48859U 21054A   26134.29380141 -.00000055  00000+0  00000+0 0  9999
2 48859  55.1894 333.8225 0024474 229.2573 265.6938  2.00571054 36074
GPS BIII-6  (PRN 28)    
1 55268U 23009A   26133.55116118  .00000117  00000+0  00000+0 0  9990
2 55268  55.1171 149.8805 0005990 314.6521  41.8863  2.00573844 24546
GPS BIII-7  (PRN 01)    
1 62339U 24242A   26132.18781948 -.00000054  00000+0  00000+0 0  9995
2 62339  54.8657 335.6414 0017084   3.1785 171.5342  2.00570893 10536
GPS BIII-8  (PRN 21)    
1 64202U 25116A   26120.52613794 -.00000106  00000+0  00000+0 0  9993
2 64202  55.2044  33.0485 0009186 336.4638 239.4024  2.00549603  6915
GPS BIII-9  (PRN 20)    
1 67588U 26017A   26133.29810109  .00000027  00000+0  00000+0 0  9992
2 67588  55.0667  90.1549 0023003 255.4228 104.2985  2.00571815430914
